NORAD_CAT_ID,OBJECT_NAME,OBJECT_TYPE,EPOCH,MEAN_MOTION,ECCENTRICITY,INCLINATION,RA_OF_ASC_NODE,ARG_OF_PERICENTER,MEAN_ANOMALY,BSTAR,MEAN_MOTION_DOT,MEAN_MOTION_DDOT,TLE_LINE0,TLE_LINE1,TLE_LINE2,SEMIMAJOR_AXIS,PERIOD,APOGEE,PERIGEE,DECAYED
52851.0,STARLINK-3809,PAYLOAD,2024-06-21 19:13:05,15.08835936,0.0001254,53.2177,313.845,87.9431,272.1704,-3.808e-05,-8.94e-06,0.0,0 STARLINK-3809,1 52851U 22062X   24173.80076213 -.00000894  00000-0 -38080-4 0  9993,2 52851  53.2177 313.8450 0001254  87.9431 272.1704 15.08835936111437,6917.893,95.438,540.625,538.89,0.0
52851.0,STARLINK-3809,PAYLOAD,2024-06-22 12:42:19,15.088437,0.0001272,53.2177,310.575,79.2393,280.8742,8.898e-05,1.129e-05,0.0,0 STARLINK-3809,1 52851U 22062X   24174.52939441  .00001129  00000-0  88980-4 0  9998,2 52851  53.2177 310.5750 0001272  79.2393 280.8742 15.08843700112038,6917.869,95.437,540.614,538.854,0.0
52851.0,STARLINK-3809,PAYLOAD,2024-06-22 14:17:42,15.08846172,0.0001295,53.2178,310.2777,78.5628,281.551,0.00010983,1.461e-05,0.0,0 STARLINK-3809,1 52851U 22062X   24174.59563221  .00001461  00000-0  10983-3 0  9990,2 52851  53.2178 310.2777 0001295  78.5628 281.5510 15.08846172111556,6917.862,95.437,540.622,538.831,0.0
52851.0,STARLINK-3809,PAYLOAD,2024-06-23 12:33:06,15.08837608,0.0001271,53.2181,306.1144,79.5586,280.5549,0.0001075,1.423e-05,0.0,0 STARLINK-3809,1 52851U 22062X   24175.52299719  .00001423  00000-0  10750-3 0  9992,2 52851  53.2181 306.1144 0001271  79.5586 280.5549 15.08837608112185,6917.888,95.438,540.632,538.873,0.0
52851.0,STARLINK-3809,PAYLOAD,2024-06-23 14:08:30,15.08838906,0.0001285,53.218,305.8171,78.984,281.1296,0.00011749,1.582e-05,0.0,0 STARLINK-3809,1 52851U 22062X   24175.58923629  .00001582  00000-0  11749-3 0  9997,2 52851  53.2180 305.8171 0001285  78.9840 281.1296 15.08838906111706,6917.884,95.438,540.638,538.86,0.0
52851.0,STARLINK-3809,PAYLOAD,2024-06-23 18:54:38,15.08845443,0.000129,53.2181,304.9242,80.5672,279.5466,0.000168,2.387e-05,0.0,0 STARLINK-3809,1 52851U 22062X   24175.78795068  .00002387  00000-0  16800-3 0  9990,2 52851  53.2181 304.9242 0001290  80.5672 279.5466 15.08845443112226,6917.864,95.437,540.621,538.836,0.0
52851.0,STARLINK-3809,PAYLOAD,2024-06-24 13:59:16,15.08851136,0.0001324,53.2179,301.3553,101.3937,258.7204,-4.7901e-05,-1.05e-05,0.0,0 STARLINK-3809,1 52851U 22062X   24176.58283047 -.00001050  00000-0 -47901-4 0  9993,2 52851  53.2179 301.3553 0001324 101.3937 258.7204 15.08851136111856,6917.846,95.437,540.627,538.795,0.0
52851.0,STARLINK-3809,PAYLOAD,2024-06-25 12:14:40,15.08859698,0.0002312,53.2178,297.193,138.7112,221.4055,-0.0002668,-4.534e-05,0.0,0 STARLINK-3809,1 52851U 22062X   24177.51019191 -.00004534  00000-0 -26680-3 0  9994,2 52851  53.2178 297.1930 0002312 138.7112 221.4055 15.08859698112485,6917.82,95.436,541.285,538.086,0.0
52851.0,STARLINK-3809,PAYLOAD,2024-06-25 13:50:04,15.08843737,0.0001275,53.2178,296.8986,91.3809,268.7329,-3.8543e-05,-9.01e-06,0.0,0 STARLINK-3809,1 52851U 22062X   24177.57643577 -.00000901  00000-0 -38543-4 0  9997,2 52851  53.2178 296.8986 0001275  91.3809 268.7329 15.08843737112009,6917.869,95.437,540.616,538.852,0.0
52851.0,STARLINK-3809,PAYLOAD,2024-06-25 15:25:27,15.08845283,0.0001251,53.2176,296.6015,82.2135,277.8999,-2.5241e-05,-6.9e-06,0.0,0 STARLINK-3809,1 52851U 22062X   24177.64267466 -.00000690  00000-0 -25241-4 0  9990,2 52851  53.2176 296.6015 0001251  82.2135 277.8999 15.08845283112016,6917.864,95.437,540.595,538.864,0.0
52851.0,STARLINK-3809,PAYLOAD,2024-06-26 12:05:27,15.08843521,0.0001383,53.2177,292.7356,75.5594,284.5551,8.8423e-05,1.12e-05,0.0,0 STARLINK-3809,1 52851U 22062X   24178.50379140  .00001120  00000-0  88423-4 0  9997,2 52851  53.2177 292.7356 0001383  75.5594 284.5551 15.08843521112632,6917.87,95.437,540.691,538.778,0.0
52851.0,STARLINK-3809,PAYLOAD,2024-06-27 13:31:38,15.0883749,0.0001069,53.2172,287.9745,79.9821,280.1292,-1.0396e-06,-3.04e-06,0.0,0 STARLINK-3809,1 52851U 22062X   24179.56363817 -.00000304  00000-0 -10396-5 0  9998,2 52851  53.2172 287.9745 0001069  79.9821 280.1292 15.08837490112796,6917.888,95.438,540.493,539.014,0.0
52851.0,STARLINK-3809,PAYLOAD,2024-06-27 15:07:01,15.08841352,0.0001282,53.2177,287.6779,81.328,278.7857,4.2961e-05,3.96e-06,0.0,0 STARLINK-3809,1 52851U 22062X   24179.62987487  .00000396  00000-0  42961-4 0  9991,2 52851  53.2177 287.6779 0001282  81.3280 278.7857 15.08841352112318,6917.876,95.437,540.628,538.854,0.0
52851.0,STARLINK-3809,PAYLOAD,2024-06-28 13:22:24,15.08844572,0.0001022,53.2167,283.5123,94.7928,265.3181,5.506e-05,5.89e-06,0.0,0 STARLINK-3809,1 52851U 22062X   24180.55723111  .00000589  00000-0  55060-4 0  9995,2 52851  53.2167 283.5123 0001022  94.7928 265.3181 15.08844572112942,6917.866,95.437,540.438,539.024,0.0
52851.0,STARLINK-3809,PAYLOAD,2024-06-29 13:13:12,15.08837172,0.0001466,53.2174,279.0542,84.3772,275.7387,2.1999e-05,6.2e-07,0.0,0 STARLINK-3809,1 52851U 22062X   24181.55084009  .00000062  00000-0  21999-4 0  9992,2 52851  53.2174 279.0542 0001466  84.3772 275.7387 15.08837172113097,6917.889,95.438,540.768,538.74,0.0
52851.0,STARLINK-3809,PAYLOAD,2024-06-30 13:03:59,15.08849483,0.00013,53.2162,274.592,82.5895,277.5245,-2.4499e-05,-6.78e-06,0.0,0 STARLINK-3809,1 52851U 22062X   24182.54443526 -.00000678  00000-0 -24499-4 0  9998,2 52851  53.2162 274.5920 0001300  82.5895 277.5245 15.08849483112750,6917.851,95.437,540.616,538.817,0.0
52851.0,STARLINK-3809,PAYLOAD,2024-06-30 16:14:45,15.08850257,0.0001307,53.2161,273.997,82.2584,277.8556,-1.132e-05,-4.68e-06,0.0,0 STARLINK-3809,1 52851U 22062X   24182.67691382 -.00000468  00000-0 -11320-4 0  9993,2 52851  53.2161 273.9970 0001307  82.2584 277.8556 15.08850257113262,6917.849,95.437,540.618,538.81,0.0
52851.0,STARLINK-3809,PAYLOAD,2024-07-01 12:54:46,15.08840617,0.0001358,53.2163,270.1346,81.7851,278.3295,0.00016216,2.294e-05,0.0,0 STARLINK-3809,1 52851U 22062X   24183.53803814  .00002294  00000-0  16216-3 0  9999,2 52851  53.2163 270.1346 0001358  81.7851 278.3295 15.08840617113396,6917.879,95.438,540.683,538.804,0.0
52851.0,STARLINK-3809,PAYLOAD,2024-07-01 22:27:05,15.08838989,0.0001163,53.2153,268.3495,72.5676,287.5443,9.2092e-05,1.178e-05,0.0,0 STARLINK-3809,1 52851U 22062X   24183.93548089  .00001178  00000-0  92092-4 0  9990,2 52851  53.2153 268.3495 0001163  72.5676 287.5443 15.08838989112964,6917.883,95.438,540.553,538.944,0.0
52851.0,STARLINK-3809,PAYLOAD,2024-07-02 04:48:38,15.08840103,0.0001252,53.2162,267.1627,90.8091,269.3045,1.0771e-05,-1.16e-06,0.0,0 STARLINK-3809,1 52851U 22062X   24184.20044405 -.00000116  00000-0  10771-4 0  9990,2 52851  53.2162 267.1627 0001252  90.8091 269.3045 15.08840103113497,6917.88,95.438,540.611,538.879,0.0
52851.0,STARLINK-3809,PAYLOAD,2024-07-02 12:45:34,15.08838072,0.0001281,53.2165,265.6754,93.5149,266.599,-1.8218e-05,-5.78e-06,0.0,0 STARLINK-3809,1 52851U 22062X   24184.53164585 -.00000578  00000-0 -18218-4 0  9995,2 52851  53.2165 265.6754 0001281  93.5149 266.5990 15.08838072113052,6917.886,95.438,540.637,538.865,0.0
52851.0,STARLINK-3809,PAYLOAD,2024-07-03 12:36:21,15.08842073,0.000113,53.2152,261.2146,91.0191,269.0931,5.3278e-05,5.6e-06,0.0,0 STARLINK-3809,1 52851U 22062X   24185.52524359  .00000560  00000-0  53278-4 0  9998,2 52851  53.2152 261.2146 0001130  91.0191 269.0931 15.08842073113697,6917.874,95.437,540.521,538.957,0.0
52851.0,STARLINK-3809,PAYLOAD,2024-07-03 22:08:39,15.08840654,0.0001084,53.2147,259.4278,86.3925,273.7191,4.2365e-05,3.87e-06,0.0,0 STARLINK-3809,1 52851U 22062X   24185.92268401  .00000387  00000-0  42365-4 0  9997,2 52851  53.2147 259.4278 0001084  86.3925 273.7191 15.08840654113262,6917.878,95.438,540.493,538.993,0.0
52851.0,STARLINK-3809,PAYLOAD,2024-07-04 14:02:31,15.0884247,0.0001204,53.2138,256.4535,90.342,269.771,0.00010957,1.456e-05,0.0,0 STARLINK-3809,1 52851U 22062X   24186.58508234  .00001456  00000-0  10957-3 0  9990,2 52851  53.2138 256.4535 0001204  90.3420 269.7710 15.08842470113365,6917.873,95.437,540.571,538.905,0.0
52851.0,STARLINK-3809,PAYLOAD,2024-07-04 21:59:27,15.08837843,0.0001095,53.2152,254.9654,80.1184,279.9932,6.6985e-05,7.78e-06,0.0,0 STARLINK-3809,1 52851U 22062X   24186.91628597  .00000778  00000-0  66985-4 0  9991,2 52851  53.2152 254.9654 0001095  80.1184 279.9932 15.08837843113411,6917.887,95.438,540.509,538.994,0.0
52851.0,STARLINK-3809,PAYLOAD,2024-07-05 04:20:59,15.08840209,0.0001241,53.2156,253.7756,88.4957,271.6177,1.8221e-05,2e-08,0.0,0 STARLINK-3809,1 52851U 22062X   24187.18124696  .00000002  00000-0  18221-4 0  9992,2 52851  53.2156 253.7756 0001241  88.4957 271.6177 15.08840209113945,6917.88,95.438,540.603,538.886,0.0
52851.0,STARLINK-3809,PAYLOAD,2024-07-05 10:42:31,15.08847186,0.0001213,53.2149,252.587,91.5098,268.6033,4.105e-05,3.66e-06,0.0,0 STARLINK-3809,1 52851U 22062X   24187.44620064  .00000366  00000-0  41050-4 0  9990,2 52851  53.2149 252.5870 0001213  91.5098 268.6033 15.08847186113983,6917.858,95.437,540.563,538.884,0.0
52851.0,STARLINK-3809,PAYLOAD,2024-07-05 21:50:13,15.08843698,0.0001208,53.2147,250.5063,87.6378,272.4752,4.4513e-05,4.21e-06,0.0,0 STARLINK-3809,1 52851U 22062X   24187.90988160  .00000421  00000-0  44513-4 0  9994,2 52851  53.2147 250.5063 0001208  87.6378 272.4752 15.08843698113563,6917.869,95.437,540.57,538.898,0.0
52851.0,STARLINK-3809,PAYLOAD,2024-07-06 10:33:19,15.0883827,0.0001406,53.2167,248.1275,95.5718,264.5435,-2.9631e-05,-7.59e-06,0.0,0 STARLINK-3809,1 52851U 22062X   24188.43980844 -.00000759  00000-0 -29631-4 0  9994,2 52851  53.2167 248.1275 0001406  95.5718 264.5435 15.08838270114133,6917.886,95.438,540.723,538.778,0.0
52851.0,STARLINK-3809,PAYLOAD,2024-07-07 08:48:43,15.08841974,0.0001435,53.2165,243.9639,94.7902,265.3255,2.0053e-06,-2.56e-06,0.0,0 STARLINK-3809,1 52851U 22062X   24189.36716490 -.00000256  00000-0  20053-5 0  9992,2 52851  53.2165 243.9639 0001435  94.7902 265.3255 15.08841974113780,6917.874,95.437,540.732,538.747,0.0
